{"type": "FeatureCollection", "features": [ {"type": "Feature", "properties": {"norad_id": 38552, "name": "METEOSAT-10 (MSG-3)", "group": "weather", "lat": 0.9287335030751549, "lon": -131.16073867405711, "alt_km": 35784.75418278106, "timestamp": "2025-12-12T09:49:08.370507+00:00", "meta": {"OBJECT_NAME": "METEOSAT-10 (MSG-3)", "OBJECT_ID": "2012-035B", "EPOCH": "2025-12-12T01:29:48.412896", "MEAN_MOTION": 1.00274807, "ECCENTRICITY": 8.06e-05, "INCLINATION": 4.2276, "RA_OF_ASC_NODE": 61.7269, "ARG_OF_PERICENTER": 251.351, "MEAN_ANOMALY": 150.5582, "EPHEMERIS_TYPE": 0, "CLASSIFICATION_TYPE": "U", "NORAD_CAT_ID": 38552, "ELEMENT_SET_NO": 999, "REV_AT_EPOCH": 4898, "BSTAR": 0, "MEAN_MOTION_DOT": 3e-08, "MEAN_MOTION_DDOT": 0}, "tle": {"line1": "1 38552U 12035B   25346.06236589  .00000003  00000+0  00000+0 0  9994", "line2": "2 38552   4.2276  61.7269 0000806 251.3510 150.5582  1.00274807 48982"}}, "geometry": {"type": "Point", "coordinates": [-131.16073867405711, 0.9287335030751549]}}, {"type": "Feature", "properties": {"norad_id": 38771, "name": "METOP-B", "group": "weather", "lat": -16.918194575201362, "lon": -146.2897220201369, "alt_km": 824.1604301868638, "timestamp": "2025-12-12T09:49:08.370519+00:00", "meta": {"OBJECT_NAME": "METOP-B", "OBJECT_ID": "2012-049A", "EPOCH": "2025-12-12T03:49:37.140096", "MEAN_MOTION": 14.21408023, "ECCENTRICITY": 0.0002883, "INCLINATION": 98.68, "RA_OF_ASC_NODE": 36.1281, "ARG_OF_PERICENTER": 145.439, "MEAN_ANOMALY": 214.6975, "EPHEMERIS_TYPE": 0, "CLASSIFICATION_TYPE": "U", "NORAD_CAT_ID": 38771, "ELEMENT_SET_NO": 999, "REV_AT_EPOCH": 68669, "BSTAR": 0.00011934, "MEAN_MOTION_DOT": 2.17e-06, "MEAN_MOTION_DDOT": 0}, "tle": {"line1": "1 38771U 12049A   25346.15945764  .00000217  00000+0  11934-3 0  9993", "line2": "2 38771  98.6800  36.1281 0002883 145.4390 214.6975 14.21408023686691"}}, "geometry": {"type": "Point", "coordinates": [-146.2897220201369, -16.918194575201362]}}, {"type": "Feature", "properties": {"norad_id": 39216, "name": "INSAT-3D", "group": "weather", "lat": -1.4355574384694174, "lon": -1.8097089761642253, "alt_km": 35788.83932097157, "timestamp": "2025-12-12T09:49:08.370546+00:00", "meta": {"OBJECT_NAME": "INSAT-3D", "OBJECT_ID": "2013-038B", "EPOCH": "2025-12-11T19:15:49.511232", "MEAN_MOTION": 1.00270347, "ECCENTRICITY": 0.0001504, "INCLINATION": 1.4427, "RA_OF_ASC_NODE": 85.0027, "ARG_OF_PERICENTER": 164.0419, "MEAN_ANOMALY": 250.209, "EPHEMERIS_TYPE": 0, "CLASSIFICATION_TYPE": "U", "NORAD_CAT_ID": 39216, "ELEMENT_SET_NO": 999, "REV_AT_EPOCH": 4520, "BSTAR": 0, "MEAN_MOTION_DOT": -3.31e-06, "MEAN_MOTION_DDOT": 0}, "tle": {"line1": "1 39216U 13038B   25345.80265638 -.00000331  00000+0  00000+0 0  9999", "line2": "2 39216   1.4427  85.0027 0001504 164.0419 250.2090  1.00270347 45201"}}, "geometry": {"type": "Point", "coordinates": [-1.8097089761642253, -1.4355574384694174]}}, {"type": "Feature", "properties": {"norad_id": 39260, "name": "FENGYUN 3C", "group": "weather", "lat": 81.4957306461552, "lon": -130.11984141462165, "alt_km": 835.3718953403322, "timestamp": "2025-12-12T09:49:08.370559+00:00", "meta": {"OBJECT_NAME": "FENGYUN 3C", "OBJECT_ID": "2013-052A", "EPOCH": "2025-12-12T04:18:10.319040", "MEAN_MOTION": 14.15696012, "ECCENTRICITY": 0.0014259, "INCLINATION": 98.4762, "RA_OF_ASC_NODE": 323.8861, "ARG_OF_PERICENTER": 197.6642, "MEAN_ANOMALY": 162.4039, "EPHEMERIS_TYPE": 0, "CLASSIFICATION_TYPE": "U", "NORAD_CAT_ID": 39260, "ELEMENT_SET_NO": 999, "REV_AT_EPOCH": 63210, "BSTAR": 0.00011545, "MEAN_MOTION_DOT": 1.85e-06, "MEAN_MOTION_DDOT": 0}, "tle": {"line1": "1 39260U 13052A   25346.17928610  .00000185  00000+0  11545-3 0  9997", "line2": "2 39260  98.4762 323.8861 0014259 197.6642 162.4039 14.15696012632107"}}, "geometry": {"type": "Point", "coordinates": [-130.11984141462165, 81.4957306461552]}}, {"type": "Feature", "properties": {"norad_id": 40069, "name": "METEOR-M 2", "group": "weather", "lat": 63.94539556558544, "lon": -53.78379902165349, "alt_km": 817.3552056928629, "timestamp": "2025-12-12T09:49:08.370571+00:00", "meta": {"OBJECT_NAME": "METEOR-M 2", "OBJECT_ID": "2014-037A", "EPOCH": "2025-12-12T04:26:39.653088", "MEAN_MOTION": 14.21386145, "ECCENTRICITY": 0.0004948, "INCLINATION": 98.4905, "RA_OF_ASC_NODE": 323.7908, "ARG_OF_PERICENTER": 211.8662, "MEAN_ANOMALY": 148.2217, "EPHEMERIS_TYPE": 0, "CLASSIFICATION_TYPE": "U", "NORAD_CAT_ID": 40069, "ELEMENT_SET_NO": 999, "REV_AT_EPOCH": 59275, "BSTAR": 0.00011305, "MEAN_MOTION_DOT": 2.05e-06, "MEAN_MOTION_DDOT": 0}, "tle": {"line1": "1 40069U 14037A   25346.18518117  .00000205  00000+0  11305-3 0  9995", "line2": "2 40069  98.4905 323.7908 0004948 211.8662 148.2217 14.21386145592757"}}, "geometry": {"type": "Point", "coordinates": [-53.78379902165349, 63.94539556558544]}}, {"type": "Feature", "properties": {"norad_id": 40267, "name": "HIMAWARI-8", "group": "weather", "lat": 0.01859164069675422, "lon": 9.297232525407823, "alt_km": 35784.47494202411, "timestamp": "2025-12-12T09:49:08.370583+00:00", "meta": {"OBJECT_NAME": "HIMAWARI-8", "OBJECT_ID": "2014-060A", "EPOCH": "2025-12-11T21:01:39.373824", "MEAN_MOTION": 1.00270133, "ECCENTRICITY": 0.0001215, "INCLINATION": 0.0351, "RA_OF_ASC_NODE": 192.2334, "ARG_OF_PERICENTER": 111.8054, "MEAN_ANOMALY": 232.8585, "EPHEMERIS_TYPE": 0, "CLASSIFICATION_TYPE": "U", "NORAD_CAT_ID": 40267, "ELEMENT_SET_NO": 999, "REV_AT_EPOCH": 4088, "BSTAR": 0, "MEAN_MOTION_DOT": -2.67e-06, "MEAN_MOTION_DDOT": 0}, "tle": {"line1": "1 40267U 14060A   25345.87615016 -.00000267  00000+0  00000+0 0  9997", "line2": "2 40267   0.0351 192.2334 0001215 111.8054 232.8585  1.00270133 40883"}}, "geometry": {"type": "Point", "coordinates": [9.297232525407823, 0.01859164069675422]}}, {"type": "Feature", "properties": {"norad_id": 40367, "name": "FENGYUN 2G", "group": "weather", "lat": -4.950302491431751, "lon": -31.856197740743205, "alt_km": 35781.5520283452, "timestamp": "2025-12-12T09:49:08.370596+00:00", "meta": {"OBJECT_NAME": "FENGYUN 2G", "OBJECT_ID": "2014-090A", "EPOCH": "2025-12-11T19:07:12.834912", "MEAN_MOTION": 1.00264403, "ECCENTRICITY": 0.0003128, "INCLINATION": 5.1663, "RA_OF_ASC_NODE": 75.1088, "ARG_OF_PERICENTER": 196.7827, "MEAN_ANOMALY": 195.2176, "EPHEMERIS_TYPE": 0, "CLASSIFICATION_TYPE": "U", "NORAD_CAT_ID": 40367, "ELEMENT_SET_NO": 999, "REV_AT_EPOCH": 4012, "BSTAR": 0, "MEAN_MOTION_DOT": -2.93e-06, "MEAN_MOTION_DDOT": 0}, "tle": {"line1": "1 40367U 14090A   25345.79667633 -.00000293  00000+0  00000+0 0  9993", "line2": "2 40367   5.1663  75.1088 0003128 196.7827 195.2176  1.00264403 40124"}}, "geometry": {"type": "Point", "coordinates": [-31.856197740743205, -4.950302491431751]}}, {"type": "Feature", "properties": {"norad_id": 40732, "name": "METEOSAT-11 (MSG-4)", "group": "weather", "lat": 0.6460229670834513, "lon": -122.04265433618497, "alt_km": 35784.23196270395, "timestamp": "2025-12-12T09:49:08.370609+00:00", "meta": {"OBJECT_NAME": "METEOSAT-11 (MSG-4)", "OBJECT_ID": "2015-034A", "EPOCH": "2025-12-12T01:32:25.661760", "MEAN_MOTION": 1.00267279, "ECCENTRICITY": 9.32e-05, "INCLINATION": 2.7337, "RA_OF_ASC_NODE": 72.0038, "ARG_OF_PERICENTER": 125.7409, "MEAN_ANOMALY": 275.68, "EPHEMERIS_TYPE": 0, "CLASSIFICATION_TYPE": "U", "NORAD_CAT_ID": 40732, "ELEMENT_SET_NO": 999, "REV_AT_EPOCH": 534, "BSTAR": 0, "MEAN_MOTION_DOT": 7e-07, "MEAN_MOTION_DDOT": 0}, "tle": {"line1": "1 40732U 15034A   25346.06418590  .00000070  00000+0  00000+0 0  9997", "line2": "2 40732   2.7337  72.0038 0000932 125.7409 275.6800  1.00267279  5346"}}, "geometry": {"type": "Point", "coordinates": [-122.04265433618497, 0.6460229670834513]}}, {"type": "Feature", "properties": {"norad_id": 41105, "name": "ELEKTRO-L 2", "group": "weather", "lat": 3.8772036307184887, "lon": -145.7283226180771, "alt_km": 35777.19799920947, "timestamp": "2025-12-12T09:49:08.370621+00:00", "meta": {"OBJECT_NAME": "ELEKTRO-L 2", "OBJECT_ID": "2015-074A", "EPOCH": "2025-12-12T01:25:33.819744", "MEAN_MOTION": 1.00272344, "ECCENTRICITY": 0.0003918, "INCLINATION": 6.2245, "RA_OF_ASC_NODE": 72.8364, "ARG_OF_PERICENTER": 201.6005, "MEAN_ANOMALY": 173.4667, "EPHEMERIS_TYPE": 0, "CLASSIFICATION_TYPE": "U", "NORAD_CAT_ID": 41105, "ELEMENT_SET_NO": 999, "REV_AT_EPOCH": 3663, "BSTAR": 0, "MEAN_MOTION_DOT": -1.09e-06, "MEAN_MOTION_DDOT": 0}, "tle": {"line1": "1 41105U 15074A   25346.05941921 -.00000109  00000+0  00000+0 0  9998", "line2": "2 41105   6.2245  72.8364 0003918 201.6005 173.4667  1.00272344 36632"}}, "geometry": {"type": "Point", "coordinates": [-145.7283226180771, 3.8772036307184887]}}, {"type": "Feature", "properties": {"norad_id": 41752, "name": "INSAT-3DR", "group": "weather", "lat": -0.06337327095111424, "lon": -57.279582168838026, "alt_km": 35734.79472761023, "timestamp": "2025-12-12T09:49:08.370634+00:00", "meta": {"OBJECT_NAME": "INSAT-3DR", "OBJECT_ID": "2016-054A", "EPOCH": "2025-12-12T03:33:36.556992", "MEAN_MOTION": 1.00270808, "ECCENTRICITY": 0.0014387, "INCLINATION": 0.0904, "RA_OF_ASC_NODE": 86.6512, "ARG_OF_PERICENTER": 184.0199, "MEAN_ANOMALY": 297.8282, "EPHEMERIS_TYPE": 0, "CLASSIFICATION_TYPE": "U", "NORAD_CAT_ID": 41752, "ELEMENT_SET_NO": 999, "REV_AT_EPOCH": 3394, "BSTAR": 0, "MEAN_MOTION_DOT": -6.7e-07, "MEAN_MOTION_DDOT": 0}, "tle": {"line1": "1 41752U 16054A   25346.14833978 -.00000067  00000+0  00000+0 0  9990", "line2": "2 41752   0.0904  86.6512 0014387 184.0199 297.8282  1.00270808 33940"}}, "geometry": {"type": "Point", "coordinates": [-57.279582168838026, -0.06337327095111424]}}]}